{
    "links": {
        "self": "http://www.neowsapp.com/rest/v1/neo/3557197?api_key=iIulBulltgU6a56xZRHN4H3l9WmuAYTsLGpBGhQ2"
    },
    "id": "3557197",
    "neo_reference_id": "3557197",
    "name": "(2011 CD22)",
    "designation": "2011 CD22",
    "nasa_jpl_url": "http://ssd.jpl.nasa.gov/sbdb.cgi?sstr=3557197",
    "absolute_magnitude_h": 22.332,
    "estimated_diameter": {
        "kilometers": {
            "estimated_diameter_min": 0.0908144541,
            "estimated_diameter_max": 0.2030672927
        },
        "meters": {
            "estimated_diameter_min": 90.8144540859,
            "estimated_diameter_max": 203.0672926756
        },
        "miles": {
            "estimated_diameter_min": 0.0564294681,
            "estimated_diameter_max": 0.1261801267
        },
        "feet": {
            "estimated_diameter_min": 297.9476935432,
            "estimated_diameter_max": 666.2312965019
        }
    },
    "is_potentially_hazardous_asteroid": false,
    "close_approach_data": [
        {
            "close_approach_date": "2011-03-14",
            "close_approach_date_full": "2011-Mar-14 12:23",
            "epoch_date_close_approach": 1300105380000,
            "relative_velocity": {
                "kilometers_per_second": "12.1397444893",
                "kilometers_per_hour": "43703.0801613374",
                "miles_per_hour": "27155.3944480266"
            },
            "miss_distance": {
                "astronomical": "0.1562092081",
                "lunar": "60.7653819509",
                "kilometers": "23368564.806146747",
                "miles": "14520552.8435572286"
            },
            "orbiting_body": "Earth"
        }
    ],
    "orbital_data": {
        "orbit_id": "6",
        "orbit_determination_date": "2017-04-06 08:54:34",
        "first_observation_date": "2011-02-07",
        "last_observation_date": "2011-02-08",
        "data_arc_in_days": 1,
        "observations_used": 27,
        "orbit_uncertainty": "9",
        "minimum_orbit_intersection": ".0251653",
        "jupiter_tisserand_invariant": "4.857",
        "epoch_osculation": "2455600.5",
        "eccentricity": ".5303948225585454",
        "semi_major_axis": "1.297194276575369",
        "inclination": "2.718798190708219",
        "ascending_node_longitude": "132.320581188282",
        "orbital_period": "539.6422726586331",
        "perihelion_distance": ".6091691484272153",
        "perihelion_argument": "128.8863361166129",
        "aphelion_distance": "1.985219404723522",
        "perihelion_time": "2455150.130071533651",
        "mean_anomaly": "300.4456516149316",
        "mean_motion": ".6671085981207568",
        "equinox": "J2000",
        "orbit_class": {
            "orbit_class_type": "APO",
            "orbit_class_description": "Near-Earth asteroid orbits which cross the Earth’s orbit similar to that of 1862 Apollo",
            "orbit_class_range": "a (semi-major axis) > 1.0 AU; q (perihelion) < 1.017 AU"
        }
    },
    "is_sentry_object": false
}